[{"OBJECT_NAME":"STARLINK-36399","OBJECT_ID":"2026-022T","EPOCH":"2026-03-09T22:00:01.999584","MEAN_MOTION":15.71792119,"ECCENTRICITY":0.00016834,"INCLINATION":97.2851,"RA_OF_ASC_NODE":102.9352,"ARG_OF_PERICENTER":72.1308,"MEAN_ANOMALY":36.5524,"EPHEMERIS_TYPE":0,"CLASSIFICATION_TYPE":"U","NORAD_CAT_ID":67665,"ELEMENT_SET_NO":999,"REV_AT_EPOCH":608,"BSTAR":-0.016767804,"MEAN_MOTION_DOT":-0.01884345,"MEAN_MOTION_DDOT":0},{"OBJECT_NAME":"COSMOS 1174","OBJECT_ID":"1980-030A","EPOCH":"2026-03-09T17:59:04.929504","MEAN_MOTION":14.57287568,"ECCENTRICITY":0.04764693,"INCLINATION":66.08,"RA_OF_ASC_NODE":145.2035,"ARG_OF_PERICENTER":169.2768,"MEAN_ANOMALY":191.8955,"EPHEMERIS_TYPE":0,"CLASSIFICATION_TYPE":"U","NORAD_CAT_ID":11765,"ELEMENT_SET_NO":999,"REV_AT_EPOCH":36443,"BSTAR":0.00027813385,"MEAN_MOTION_DOT":6.298e-5,"MEAN_MOTION_DDOT":0}]
